1 59587U 24077A   26137.49967325  .00009537  00000-0  26021-3 0  9996
2 59587  97.3492 221.4750 0009948 139.8667 220.3314 15.37603261115018